*******************************************************************************
 Revised: September 28, 2017           Jupiter                              599
 
 PHYSICAL DATA (updated 2018-Aug-15):
  Mass x10^24 (kg)      = 1898.13+-.19    Density (g/cm^3)       =   1.326
  Equat. radius (1 bar) = 71492+-4 km     Polar radius (km)      =  66854+-10
  Vol. Mean Radius (km) = 69911+-6        Flattening             =   0.06487
  Geometric Albedo      = 0.52            Rocky core mass (Mc/M) =  0.0261
  Sid. rot. period (III)= 9h 55m 29.71 s  Sid. rot. rate (rad/s) =  0.00017585 
  Mean solar day, hrs   = ~9.9259         
  GM (km^3/s^2)         = 126686534.911   GM 1-sigma (km^3/s^2)  =  +-1.5
  Equ. grav, ge (m/s^2) = 24.79           Pol. grav, gp (m/s^2)  =  28.34
  Vis. magnitude V(1,0) = -9.40
  Vis. mag. (opposition)= -2.70           Obliquity to orbit     =  3.13 deg
  Sidereal orbit period = 11.861982204 y  Sidereal orbit period  = 4332.589 d
  Mean daily motion     = 0.0831294 deg/d Mean orbit speed, km/s = 13.0697
  Atmos. temp. (1 bar)  = 165+-5 K        Escape speed, km/s    =  59.5           
  A_roche(ice)/Rp       =  2.76           Hill's sphere rad. Rp  = 740
                                 Perihelion   Aphelion     Mean
  Solar Constant (W/m^2)         56           46           51
  Maximum Planetary IR (W/m^2)   13.7         13.4         13.6
  Minimum Planetary IR (W/m^2)   13.7         13.4         13.6
*******************************************************************************
 
 
*******************************************************************************
Ephemeris / WWW_USER Fri Nov  9 15:27:05 2018 Pasadena, USA      / Horizons    
*******************************************************************************
Target body name: Jupiter (599)                   {source: jup341}
Center body name: Earth (399)                     {source: DE431mx}
Center-site name: GEOCENTRIC
*******************************************************************************
Start time      : A.D. 2014-Apr-15 00:00:00.0000 UT      
Stop  time      : A.D. 2014-Apr-17 00:00:00.0000 UT      
Step-size       : 5 minutes
*******************************************************************************
Target pole/equ : IAU_JUPITER                     {West-longitude positive}
Target radii    : 71492.0 x 71492.0 x 66854.0 km  {Equator, meridian, pole}    
Center geodetic : 0.00000000,0.00000000,0.0000000 {E-lon(deg),Lat(deg),Alt(km)}
Center cylindric: 0.00000000,0.00000000,0.0000000 {E-lon(deg),Dxy(km),Dz(km)}
Center pole/equ : High-precision EOP model        {East-longitude positive}
Center radii    : 6378.1 x 6378.1 x 6356.8 km     {Equator, meridian, pole}    
Target primary  : Sun
Vis. interferer : MOON (R_eq= 1737.400) km        {source: DE431mx}
Rel. light bend : Sun, EARTH                      {source: DE431mx}
Rel. lght bnd GM: 1.3271E+11, 3.9860E+05 km^3/s^2                              
Atmos refraction: NO (AIRLESS)
RA format       : DEG
Time format     : CAL 
EOP file        : eop.181108.p190130                                           
EOP coverage    : DATA-BASED 1962-JAN-20 TO 2018-NOV-08. PREDICTS-> 2019-JAN-29
Units conversion: 1 au= 149597870.700 km, c= 299792.458 km/s, 1 day= 86400.0 s 
Table cut-offs 1: Elevation (-90.0deg=NO ),Airmass (>38.000=NO), Daylight (NO )
Table cut-offs 2: Solar elongation (  0.0,180.0=NO ),Local Hour Angle( 0.0=NO )
Table cut-offs 3: RA/DEC angular rate (     0.0=NO )                           
**************************************************************************************************************************************
 Date__(UT)__HR:MN:SC.fff     R.A._(ICRF/J2K)_DEC Ang-diam Ob-lon Ob-lat Sl-lon Sl-lat   NP.ang   NP.dist            delta      deldot
**************************************************************************************************************************************
$$SOE
 2014-Apr-15 11:00:00.000     103.82390  23.11788 36.81273 274.80   1.75 264.01   1.43   6.8048     17.20 5.35536585259226  27.2618692
 2014-Apr-15 11:05:00.000     103.82433  23.11784 36.81235 277.82   1.75 267.03   1.43   6.8049     17.20 5.35542052291159  27.2615580
 2014-Apr-15 11:10:00.000     103.82477  23.11781 36.81198 280.84   1.75 270.05   1.43   6.8051     17.20 5.35547519260678  27.2612467
 2014-Apr-15 11:15:00.000     103.82521  23.11777 36.81160 283.86   1.75 273.07   1.43   6.8053     17.20 5.35552986167750  27.2609352
 2014-Apr-15 11:20:00.000     103.82565  23.11774 36.81123 286.89   1.75 276.10   1.43   6.8055     17.20 5.35558453012343  27.2606236
 2014-Apr-15 11:25:00.000     103.82608  23.11770 36.81085 289.91   1.75 279.12   1.43   6.8057     17.20 5.35563919794425  27.2603118
 2014-Apr-15 11:30:00.000     103.82652  23.11767 36.81047 292.93   1.75 282.14   1.43   6.8059     17.20 5.35569386513965  27.2599999
 2014-Apr-15 11:35:00.000     103.82696  23.11763 36.81010 295.95   1.75 285.16   1.43   6.8060     17.20 5.35574853170927  27.2596877
 2014-Apr-15 11:40:00.000     103.82740  23.11760 36.80972 298.97   1.75 288.18   1.43   6.8062     17.20 5.35580319765282  27.2593755
 2014-Apr-15 11:45:00.000     103.82783  23.11756 36.80935 302.00   1.75 291.21   1.43   6.8064     17.20 5.35585786296997  27.2590630
 2014-Apr-15 11:50:00.000     103.82827  23.11753 36.80897 305.02   1.75 294.23   1.43   6.8066     17.20 5.35591252766037  27.2587504
 2014-Apr-15 11:55:00.000     103.82871  23.11749 36.80860 308.04   1.75 297.25   1.43   6.8068     17.20 5.35596719172369  27.2584376
 2014-Apr-15 12:00:00.000     103.82915  23.11746 36.80822 311.06   1.75 300.27   1.43   6.8069     17.20 5.35602185515964  27.2581247
 2014-Apr-15 12:05:00.000     103.82958  23.11742 36.80784 314.08   1.75 303.30   1.43   6.8071     17.20 5.35607651796786  27.2578116
 2014-Apr-15 12:10:00.000     103.83002  23.11739 36.80747 317.11   1.75 306.32   1.43   6.8073     17.20 5.35613118014801  27.2574983
 2014-Apr-15 12:15:00.000     103.83046  23.11735 36.80709 320.13   1.75 309.34   1.43   6.8075     17.20 5.35618584169979  27.2571849
 2014-Apr-15 12:20:00.000     103.83090  23.11731 36.80672 323.15   1.75 312.36   1.43   6.8077     17.20 5.35624050262286  27.2568713
 2014-Apr-15 12:25:00.000     103.83134  23.11728 36.80634 326.17   1.75 315.38   1.43   6.8079     17.20 5.35629516291686  27.2565576
 2014-Apr-15 12:30:00.000     103.83177  23.11724 36.80597 329.19   1.75 318.41   1.43   6.8080     17.20 5.35634982258150  27.2562436
 2014-Apr-15 12:35:00.000     103.83221  23.11721 36.80559 332.22   1.75 321.43   1.43   6.8082     17.20 5.35640448161642  27.2559295
 2014-Apr-15 12:40:00.000     103.83265  23.11717 36.80522 335.24   1.75 324.45   1.43   6.8084     17.20 5.35645914002129  27.2556153
 2014-Apr-15 12:45:00.000     103.83309  23.11714 36.80484 338.26   1.75 327.47   1.43   6.8086     17.20 5.35651379779578  27.2553009
 2014-Apr-15 12:50:00.000     103.83353  23.11710 36.80446 341.28   1.75 330.49   1.43   6.8088     17.20 5.35656845493957  27.2549863
 2014-Apr-15 12:55:00.000     103.83396  23.11707 36.80409 344.30   1.75 333.52   1.43   6.8090     17.20 5.35662311145229  27.2546715
 2014-Apr-15 13:00:00.000     103.83440  23.11703 36.80371 347.33   1.75 336.54   1.43   6.8091     17.20 5.35667776733365  27.2543566
 2014-Apr-15 13:05:00.000     103.83484  23.11700 36.80334 350.35   1.75 339.56   1.43   6.8093     17.20 5.35673242258328  27.2540415
 2014-Apr-15 13:10:00.000     103.83528  23.11696 36.80296 353.37   1.75 342.58   1.43   6.8095     17.20 5.35678707720085  27.2537262
 2014-Apr-15 13:15:00.000     103.83572  23.11693 36.80259 356.39   1.75 345.61   1.43   6.8097     17.20 5.35684173118604  27.2534108
 2014-Apr-15 13:20:00.000     103.83615  23.11689 36.80221 359.41   1.75 348.63   1.43   6.8099     17.20 5.35689638453851  27.2530952
 2014-Apr-15 13:25:00.000     103.83659  23.11686 36.80184   2.44   1.75 351.65   1.43   6.8100     17.20 5.35695103725791  27.2527795
 2014-Apr-15 13:30:00.000     103.83703  23.11682 36.80146   5.46   1.75 354.67   1.43   6.8102     17.20 5.35700568934393  27.2524635
 2014-Apr-15 13:35:00.000     103.83747  23.11679 36.80109   8.48   1.75 357.69   1.43   6.8104     17.20 5.35706034079621  27.2521474
 2014-Apr-15 13:40:00.000     103.83791  23.11675 36.80071  11.50   1.75   0.72   1.43   6.8106     17.20 5.35711499161442  27.2518312
 2014-Apr-15 13:45:00.000     103.83834  23.11672 36.80033  14.52   1.75   3.74   1.43   6.8108     17.20 5.35716964179824  27.2515148
 2014-Apr-15 13:50:00.000     103.83878  23.11668 36.79996  17.55   1.75   6.76   1.43   6.8110     17.20 5.35722429134733  27.2511982
 2014-Apr-15 13:55:00.000     103.83922  23.11665 36.79958  20.57   1.75   9.78   1.43   6.8111     17.20 5.35727894026133  27.2508814
 2014-Apr-15 14:00:00.000     103.83966  23.11661 36.79921  23.59   1.75  12.80   1.43   6.8113     17.20 5.35733358853993  27.2505645
 2014-Apr-15 14:05:00.000     103.84010  23.11658 36.79883  26.61   1.75  15.83   1.43   6.8115     17.20 5.35738823618280  27.2502474
 2014-Apr-15 14:10:00.000     103.84054  23.11654 36.79846  29.63   1.75  18.85   1.43   6.8117     17.20 5.35744288318958  27.2499301
 2014-Apr-15 14:15:00.000     103.84098  23.11651 36.79808  32.66   1.75  21.87   1.43   6.8119     17.20 5.35749752955996  27.2496127
 2014-Apr-15 14:20:00.000     103.84141  23.11647 36.79771  35.68   1.75  24.89   1.43   6.8121     17.20 5.35755217529359  27.2492951
 2014-Apr-15 14:25:00.000     103.84185  23.11644 36.79733  38.70   1.75  27.92   1.43   6.8122     17.20 5.35760682039014  27.2489773
 2014-Apr-15 14:30:00.000     103.84229  23.11640 36.79696  41.72   1.75  30.94   1.43   6.8124     17.20 5.35766146484929  27.2486594
 2014-Apr-15 14:35:00.000     103.84273  23.11637 36.79658  44.74   1.75  33.96   1.43   6.8126     17.20 5.35771610867069  27.2483413
